{"version": 0.6, "generator": "Overpass API 0.7.62.8 e802775f", "osm3s": {"timestamp_osm_base": "2026-01-12T18:05:35Z", "copyright": "The data included in this document is from www.openstreetmap.org. The data is made available under ODbL."}, "elements": [{"type": "node", "id": 1752603276, "lat": 22.6811071, "lon": 72.868841, "tags": {"addr:postcode": "387001", "amenity": "restaurant", "cuisine": "pizza", "name": "U.S Pizza"}}, {"type": "node", "id": 1752605061, "lat": 22.6829954, "lon": 72.8719899, "tags": {"amenity": "hospital", "emergency": "yes", "name": "Muljibhai Patel Urological Hospital"}}, {"type": "node", "id": 1752605515, "lat": 22.6796173, "lon": 72.8731111, "tags": {"addr:district": "KHEDA", "addr:full": "Near Kideny Hospital", "addr:postcode": "387002", "addr:state": "Gujarat", "addr:subdistrict": "Nadiad", "amenity": "hospital", "description": "District Hospital", "emergency": "yes", "name": "J.Z.M.N. Hospital Nadiad", "source": "OpenGovernmentData"}}, {"type": "node", "id": 1752606250, "lat": 22.6834705, "lon": 72.8662124, "tags": {"amenity": "fuel", "name": "Kuber Petroleum"}}, {"type": "node", "id": 6888389555, "lat": 22.6832023, "lon": 72.8723614, "tags": {"addr:city": "Nadiad", "addr:district": "KHEDA", "addr:full": "Muljibhai Patel Urological Hospital, Dr. V.V. Desai Marg, Nadiad, Kheda", "addr:postcode": "387001", "addr:state": "Gujarat", "amenity": "blood_bank", "contact:phone": "02682520323; 02682520325", "email": "sonishail@yahoo.com", "name": "Muljibhai Patel Urological Hospital Blood Bank", "opening_hours": "24/7", "operator:type": "private", "source": "OpenGovernmentData", "website": "http://www.mpuh.org/"}}, {"type": "node", "id": 6970680761, "lat": 22.6857798, "lon": 72.8710223, "tags": {"addr:district": "Kheda", "addr:full": "Opposite Jeevandeep Society, Nana Kumbhnath Road", "addr:postcode": "387001", "addr:state": "Gujarat", "amenity": "hospital", "name": "Surabhi Surgical and Maternity Hospital", "source": "OpenGovernmentData"}}, {"type": "node", "id": 6981359553, "lat": 22.6849619, "lon": 72.8657893, "tags": {"addr:district": "Kheda", "addr:full": "Near Charotar Bank, Chetak Petrol Pump, Santaram Road, Nadiad", "addr:postcode": "387001", "addr:state": "Gujarat", "amenity": "hospital", "name": "Gopal Children Hospital and Neonatal Care Nursery", "source": "OpenGovernmentData"}}, {"type": "node", "id": 6981716370, "lat": 22.6864195, "lon": 72.8662312, "tags": {"addr:district": "Kheda", "addr:full": "Vkv Road, Nadiad", "addr:postcode": "387001", "addr:state": "Gujarat", "amenity": "hospital", "name": "Dr. Dinesh Pandhi's New Hospital", "source": "OpenGovernmentData"}}, {"type": "node", "id": 6989164268, "lat": 22.6867523, "lon": 72.8667113, "tags": {"addr:district": "Kheda", "addr:full": "Rabari Wad, Desai Vago, Nadiad", "addr:postcode": "387001", "addr:state": "Gujarat", "amenity": "hospital", "name": "Shubham Hospital, Kheda", "source": "OpenGovernmentData"}}, {"type": "node", "id": 6989177892, "lat": 22.6861411, "lon": 72.8662164, "tags": {"addr:district": "Kheda", "addr:full": "Alaknanda Tapovan Society, Vkv Road, Nadiad", "addr:postcode": "387001", "addr:state": "Gujarat", "amenity": "clinic", "name": "Santvan Psychiatric Nursing Home", "source": "OpenGovernmentData"}}, {"type": "node", "id": 7867105319, "lat": 22.683869, "lon": 72.866103, "tags": {"addr:district": "Kheda", "addr:full": "Nadiad", "addr:postcode": "387001", "addr:state": "Gujarat", "amenity": "hospital", "name": "Suruchi Hospital", "source": "Local Knowledge"}}, {"type": "node", "id": 7867105320, "lat": 22.6849877, "lon": 72.8710577, "tags": {"addr:district": "Kheda", "addr:full": "Shanti Nagar, Nadiad", "addr:postcode": "387001", "addr:state": "Gujarat", "amenity": "clinic", "name": "Punsvan Clinic", "source": "Local Knowledge"}}, {"type": "node", "id": 7867105321, "lat": 22.6866766, "lon": 72.8700079, "tags": {"addr:district": "Kheda", "addr:full": "Shanti Nagar, Nadiad", "addr:postcode": "387001", "addr:state": "Gujarat", "amenity": "hospital", "name": "Dr. B. L. Bhatt Hospital", "source": "Local Knowledge"}}, {"type": "node", "id": 7867105322, "lat": 22.6838416, "lon": 72.8660299, "tags": {"addr:district": "Kheda", "addr:full": "Nadiad", "addr:postcode": "387001", "addr:state": "Gujarat", "amenity": "clinic", "name": "Sparsh Orthocare", "source": "Local Knowledge"}}, {"type": "node", "id": 7867105325, "lat": 22.6857643, "lon": 72.87052, "tags": {"addr:district": "Kheda", "addr:full": "Shanti Nagar, Nadiad", "addr:postcode": "387001", "addr:state": "Gujarat", "amenity": "dentist", "name": "Dosi Dental Care", "source": "Local Knowledge"}}, {"type": "node", "id": 7867105330, "lat": 22.6865498, "lon": 72.8696586, "tags": {"addr:district": "Kheda", "addr:full": "Shanti Nagar, Nadiad", "addr:postcode": "387001", "addr:state": "Gujarat", "amenity": "hospital", "name": "Utharsh Hospital", "source": "Local Knowledge"}}, {"type": "node", "id": 7867105332, "lat": 22.6851709, "lon": 72.8709762, "tags": {"addr:district": "Kheda", "addr:full": "Shanti Nagar, Nadiad", "addr:postcode": "387001", "addr:state": "Gujarat", "amenity": "hospital", "name": "Utkarsh Hospital", "source": "Local Knowledge"}}, {"type": "node", "id": 7867105337, "lat": 22.6832417, "lon": 72.8722937, "tags": {"addr:district": "Kheda", "addr:full": "Nadiad", "addr:postcode": "387001", "addr:state": "Gujarat", "amenity": "hospital", "name": "Muljibhai Patel Urological Hospital", "source": "Local Knowledge"}}, {"type": "node", "id": 7867105352, "lat": 22.685005, "lon": 72.870619, "tags": {"addr:district": "Kheda", "addr:postcode": "387001", "addr:state": "Gujarat", "amenity": "dentist", "name": "Fine Feather Dental Clinic", "source": "Local Knowledge"}}, {"type": "node", "id": 7867105359, "lat": 22.684118, "lon": 72.8735951, "tags": {"addr:district": "Kheda", "addr:full": "Nadiad", "addr:postcode": "387001", "addr:state": "Gujarat", "amenity": "clinic", "name": "Akshar Clinic", "source": "Local Knowledge"}}, {"type": "node", "id": 7867105373, "lat": 22.684585, "lon": 72.866458, "tags": {"addr:district": "Kheda", "addr:full": "Nadiad", "addr:postcode": "387001", "addr:state": "Gujarat", "amenity": "hospital", "name": "Dr. Hashmukh Shah's Hospital", "source": "Local Knowledge"}}]}