{"version": 0.6, "generator": "Overpass API 0.7.62.8 e802775f", "osm3s": {"timestamp_osm_base": "2026-01-12T17:59:14Z", "copyright": "The data included in this document is from www.openstreetmap.org. The data is made available under ODbL."}, "elements": [{"type": "node", "id": 1750346792, "lat": 22.6881852, "lon": 72.8645993, "tags": {"amenity": "hospital", "name": "Santram CT Scan Center"}}, {"type": "node", "id": 1750346826, "lat": 22.688297, "lon": 72.8650779, "tags": {"amenity": "hospital", "name": "Santram Pathology Lab"}}, {"type": "node", "id": 1750346848, "lat": 22.6888731, "lon": 72.8644008, "tags": {"amenity": "hospital", "name": "Santram Eye Hospital"}}, {"type": "node", "id": 1752605061, "lat": 22.6829954, "lon": 72.8719899, "tags": {"amenity": "hospital", "emergency": "yes", "name": "Muljibhai Patel Urological Hospital"}}, {"type": "node", "id": 1752605515, "lat": 22.6796173, "lon": 72.8731111, "tags": {"addr:district": "KHEDA", "addr:full": "Near Kideny Hospital", "addr:postcode": "387002", "addr:state": "Gujarat", "addr:subdistrict": "Nadiad", "amenity": "hospital", "description": "District Hospital", "emergency": "yes", "name": "J.Z.M.N. Hospital Nadiad", "source": "OpenGovernmentData"}}, {"type": "node", "id": 4434373007, "lat": 22.7007431, "lon": 72.8445436, "tags": {"addr:district": "Kheda", "addr:full": "Missiona Road, Nadiad", "addr:postcode": "387002", "addr:state": "Gujarat", "amenity": "hospital", "name": "D D M M Institute Of Cardiology", "source": "OpenGovernmentData"}}, {"type": "node", "id": 4434376389, "lat": 22.7003247, "lon": 72.8475525, "tags": {"amenity": "hospital", "name": "Mission Hospital"}}, {"type": "node", "id": 6968859238, "lat": 22.6547497, "lon": 72.8951481, "tags": {"addr:district": "Kheda", "addr:full": "P. O- Uttarsanda, At. Nadiad", "addr:postcode": "387370", "addr:state": "Gujarat", "amenity": "hospital", "name": "C G General Hospital", "source": "OpenGovernmentData"}}, {"type": "node", "id": 6970060949, "lat": 22.6920047, "lon": 72.8671968, "tags": {"addr:district": "Kheda", "addr:full": "Deshi Vago", "addr:postcode": "387001", "addr:state": "Gujarat", "amenity": "hospital", "name": "Anjali Hospital, Kheda", "source": "OpenGovernmentData"}}, {"type": "node", "id": 6970356741, "lat": 22.6889313, "lon": 72.8626049, "tags": {"addr:district": "Kheda", "addr:full": "Santram Road Nr Alka Theater Nadiad Nadiad", "addr:postcode": "387001", "addr:state": "Gujarat", "amenity": "hospital", "name": "Dr Jayant Shah Hospital", "source": "OpenGovernmentData"}}, {"type": "node", "id": 6970457806, "lat": 22.691349, "lon": 72.8626625, "tags": {"addr:district": "Kheda", "addr:full": "Opposite, D.P.Desai School, Santram Road", "addr:postcode": "387001", "addr:state": "Gujarat", "amenity": "hospital", "name": "Krishna Hospital, Kheda", "source": "OpenGovernmentData"}}, {"type": "node", "id": 6970488768, "lat": 22.6940648, "lon": 72.8597108, "tags": {"addr:district": "Kheda", "addr:full": "Ghodia Bazar, Station Road, Nadiad", "addr:postcode": "387001", "addr:state": "Gujarat", "amenity": "hospital", "name": "Madhu Eye Hospital", "source": "OpenGovernmentData"}}, {"type": "node", "id": 6970680761, "lat": 22.6857798, "lon": 72.8710223, "tags": {"addr:district": "Kheda", "addr:full": "Opposite Jeevandeep Society, Nana Kumbhnath Road", "addr:postcode": "387001", "addr:state": "Gujarat", "amenity": "hospital", "name": "Surabhi Surgical and Maternity Hospital", "source": "OpenGovernmentData"}}, {"type": "node", "id": 6974223768, "lat": 22.6932519, "lon": 72.8561179, "tags": {"addr:district": "Kheda", "addr:full": "Behind Railway Station Nadiad Nadiad", "addr:postcode": "387002", "addr:state": "Gujarat", "amenity": "hospital", "name": "Sanjay Hospital, Kheda", "source": "OpenGovernmentData"}}, {"type": "node", "id": 6974421399, "lat": 22.6923345, "lon": 72.8715856, "tags": {"addr:district": "Kheda", "addr:full": "Near Shital Cinema, Dakor Road, Nadiad", "addr:postcode": "387001", "addr:state": "Gujarat", "amenity": "hospital", "name": "Omkar Hospital, Kheda", "source": "OpenGovernmentData"}}, {"type": "node", "id": 6975737966, "lat": 22.6927663, "lon": 72.8616936, "tags": {"addr:district": "Kheda", "addr:full": "Pij Bhagol", "addr:postcode": "387001", "addr:state": "Gujarat", "amenity": "hospital", "name": "Tulsi Hospital, Kheda", "source": "OpenGovernmentData"}}, {"type": "node", "id": 6976030255, "lat": 22.6955786, "lon": 72.8706723, "tags": {"addr:district": "Kheda", "addr:full": "Saloon Bazar,Opposite salon Police Chowky", "addr:postcode": "387002", "addr:state": "Gujarat", "amenity": "hospital", "name": "Smit Hospital", "source": "OpenGovernmentData"}}, {"type": "node", "id": 6977693644, "lat": 22.6885192, "lon": 72.8688866, "tags": {"addr:district": "Kheda", "addr:full": "New Block, Gaurav Society, Nana Kumbhnath Road", "addr:postcode": "387001", "addr:state": "Gujarat", "amenity": "hospital", "name": "Samip Hospital", "source": "OpenGovernmentData"}}, {"type": "node", "id": 6977948947, "lat": 22.6931876, "lon": 72.8605852, "tags": {"addr:district": "Kheda", "addr:full": "Santram Complex, Near Oper Air Theater, Opposite Physiotherapy Center, Nadiad", "addr:postcode": "387001", "addr:state": "Gujarat", "amenity": "hospital", "name": "Radha Swami Surgical Hospital", "source": "OpenGovernmentData"}}, {"type": "node", "id": 6978518794, "lat": 22.6916224, "lon": 72.8627108, "tags": {"addr:district": "Kheda", "addr:full": "Opp, D P Desai High School & Lalit Laboratory, Santram Road, Nadiad", "addr:postcode": "387001", "addr:state": "Gujarat", "amenity": "hospital", "name": "Shreenath Hospital, Kheda", "source": "OpenGovernmentData"}}, {"type": "node", "id": 6980890379, "lat": 22.6821097, "lon": 72.8774066, "tags": {"addr:district": "Kheda", "addr:full": "College Road, Nadiad", "addr:postcode": "387001", "addr:state": "Gujarat", "amenity": "hospital", "name": "J.S.Ayurved Mahavidyalaya and P.D.Patel Ayurved Hospital", "source": "OpenGovernmentData"}}, {"type": "node", "id": 6981243837, "lat": 22.692444, "lon": 72.8599052, "tags": {"addr:district": "Kheda", "addr:full": "Near New S T Stand Nadiad Nadiad", "addr:postcode": "387001", "addr:state": "Gujarat", "amenity": "hospital", "name": "Dr Solanki Hospital", "source": "OpenGovernmentData"}}, {"type": "node", "id": 6981312413, "lat": 22.6874613, "lon": 72.8662446, "tags": {"addr:district": "Kheda", "addr:full": "Behind Santram Mandir Nadiad", "addr:postcode": "387001", "addr:state": "Gujarat", "amenity": "hospital", "name": "Shree Santram Ntera Chikitsalay", "source": "OpenGovernmentData"}}, {"type": "node", "id": 6981359553, "lat": 22.6849619, "lon": 72.8657893, "tags": {"addr:district": "Kheda", "addr:full": "Near Charotar Bank, Chetak Petrol Pump, Santaram Road, Nadiad", "addr:postcode": "387001", "addr:state": "Gujarat", "amenity": "hospital", "name": "Gopal Children Hospital and Neonatal Care Nursery", "source": "OpenGovernmentData"}}, {"type": "node", "id": 6981509612, "lat": 22.6903628, "lon": 72.8663412, "tags": {"addr:district": "Kheda", "addr:full": "Kheda", "addr:postcode": "387001", "addr:state": "Gujarat", "amenity": "hospital", "name": "Nidhi Hospital, Kheda", "source": "OpenGovernmentData"}}, {"type": "node", "id": 6981716370, "lat": 22.6864195, "lon": 72.8662312, "tags": {"addr:district": "Kheda", "addr:full": "Vkv Road, Nadiad", "addr:postcode": "387001", "addr:state": "Gujarat", "amenity": "hospital", "name": "Dr. Dinesh Pandhi's New Hospital", "source": "OpenGovernmentData"}}, {"type": "node", "id": 6981995593, "lat": 22.6925541, "lon": 72.8553964, "tags": {"addr:district": "Kheda", "addr:full": "2nd Floor, Metro City Complex,Opposite Shreyas Cinema ,Pij Road, Nadiad", "addr:postcode": "387002", "addr:state": "Gujarat", "amenity": "hospital", "name": "Keya Hospitals", "source": "OpenGovernmentData"}}, {"type": "node", "id": 6982030607, "lat": 22.7001991, "lon": 72.8467517, "tags": {"addr:district": "Kheda", "addr:full": "Nadiad", "addr:postcode": "387002", "addr:state": "Gujarat", "amenity": "hospital", "name": "The Methodist Hospital", "source": "OpenGovernmentData"}}, {"type": "node", "id": 6982581446, "lat": 22.6892004, "lon": 72.8716707, "tags": {"addr:district": "Kheda", "addr:full": "Colleage Road, Nadiad", "addr:postcode": "387001", "addr:state": "Gujarat", "amenity": "hospital", "name": "Sheth H. J. Mahagujarat Hospital", "source": "OpenGovernmentData"}}, {"type": "node", "id": 6982731888, "lat": 22.6909153, "lon": 72.8672223, "tags": {"addr:district": "Kheda", "addr:full": "Opposite Ipcowala Hall, Near Ice Factory Comp", "addr:postcode": "387001", "addr:state": "Gujarat", "amenity": "hospital", "name": "Shaishav Children Hospital, Kheda", "source": "OpenGovernmentData"}}, {"type": "node", "id": 6988302584, "lat": 22.687757, "lon": 72.8687163, "tags": {"addr:district": "Kheda", "addr:full": "Nana Kumbhnath Road, Nadiad", "addr:postcode": "387001", "addr:state": "Gujarat", "amenity": "hospital", "name": "Aaradhna Hospital", "source": "OpenGovernmentData"}}, {"type": "node", "id": 6989164268, "lat": 22.6867523, "lon": 72.8667113, "tags": {"addr:district": "Kheda", "addr:full": "Rabari Wad, Desai Vago, Nadiad", "addr:postcode": "387001", "addr:state": "Gujarat", "amenity": "hospital", "name": "Shubham Hospital, Kheda", "source": "OpenGovernmentData"}}, {"type": "node", "id": 6989177892, "lat": 22.6861411, "lon": 72.8662164, "tags": {"addr:district": "Kheda", "addr:full": "Alaknanda Tapovan Society, Vkv Road, Nadiad", "addr:postcode": "387001", "addr:state": "Gujarat", "amenity": "clinic", "name": "Santvan Psychiatric Nursing Home", "source": "OpenGovernmentData"}}, {"type": "node", "id": 6990668315, "lat": 22.6817843, "lon": 72.8755425, "tags": {"addr:district": "Kheda", "addr:full": "Near Bharat Tobacco, Vitthalkanya Vidhyalay Road", "addr:postcode": "387001", "addr:state": "Gujarat", "amenity": "hospital", "name": "Dr Hasmukh's Ent Hospital", "source": "OpenGovernmentData"}}, {"type": "node", "id": 6993860356, "lat": 22.6934189, "lon": 72.8600715, "tags": {"addr:district": "Kheda", "addr:full": "Yogi Complex, Opposite Old S T Bus Stand, Nadiad", "addr:postcode": "387001", "addr:state": "Gujarat", "amenity": "hospital", "name": "Ranjan Prasuti Gruh", "source": "OpenGovernmentData"}}, {"type": "node", "id": 7867105317, "lat": 22.691702, "lon": 72.866614, "tags": {"addr:district": "Kheda", "addr:full": "Junaraopura, Nadiad", "addr:postcode": "387001", "addr:state": "Gujarat", "amenity": "hospital", "name": "Shivam Hospital", "source": "Local Knowledge"}}, {"type": "node", "id": 7867105319, "lat": 22.683869, "lon": 72.866103, "tags": {"addr:district": "Kheda", "addr:full": "Nadiad", "addr:postcode": "387001", "addr:state": "Gujarat", "amenity": "hospital", "name": "Suruchi Hospital", "source": "Local Knowledge"}}, {"type": "node", "id": 7867105320, "lat": 22.6849877, "lon": 72.8710577, "tags": {"addr:district": "Kheda", "addr:full": "Shanti Nagar, Nadiad", "addr:postcode": "387001", "addr:state": "Gujarat", "amenity": "clinic", "name": "Punsvan Clinic", "source": "Local Knowledge"}}, {"type": "node", "id": 7867105321, "lat": 22.6866766, "lon": 72.8700079, "tags": {"addr:district": "Kheda", "addr:full": "Shanti Nagar, Nadiad", "addr:postcode": "387001", "addr:state": "Gujarat", "amenity": "hospital", "name": "Dr. B. L. Bhatt Hospital", "source": "Local Knowledge"}}, {"type": "node", "id": 7867105322, "lat": 22.6838416, "lon": 72.8660299, "tags": {"addr:district": "Kheda", "addr:full": "Nadiad", "addr:postcode": "387001", "addr:state": "Gujarat", "amenity": "clinic", "name": "Sparsh Orthocare", "source": "Local Knowledge"}}, {"type": "node", "id": 7867105323, "lat": 22.6911506, "lon": 72.8617986, "tags": {"addr:district": "Kheda", "addr:full": "Nadiad", "addr:postcode": "387001", "addr:state": "Gujarat", "amenity": "clinic", "healthcare": "clinic", "source": "Local Knowledge"}}, {"type": "node", "id": 7867105324, "lat": 22.7007794, "lon": 72.8476721, "tags": {"addr:district": "Kheda", "addr:full": "Nadiad", "addr:postcode": "387001", "addr:state": "Gujarat", "amenity": "hospital", "name": "Mission Hospital", "source": "Local Knowledge"}}, {"type": "node", "id": 7867105327, "lat": 22.6873483, "lon": 72.8689128, "tags": {"addr:district": "Kheda", "addr:full": "Shanti Nagar", "addr:postcode": "387001", "addr:state": "Gujarat", "amenity": "hospital", "name": "New Rahul Hospital", "source": "Local Knowledge"}}, {"type": "node", "id": 7867105328, "lat": 22.688273, "lon": 72.8735999, "tags": {"addr:district": "Kheda", "addr:full": "Nutan Park, Nadiad", "addr:postcode": "387001", "addr:state": "Gujarat", "amenity": "hospital", "name": "Brahma Ayurved Multispeciality Hospital", "source": "Local Knowledge"}}, {"type": "node", "id": 7867105330, "lat": 22.6865498, "lon": 72.8696586, "tags": {"addr:district": "Kheda", "addr:full": "Shanti Nagar, Nadiad", "addr:postcode": "387001", "addr:state": "Gujarat", "amenity": "hospital", "name": "Utharsh Hospital", "source": "Local Knowledge"}}, {"type": "node", "id": 7867105331, "lat": 22.7014802, "lon": 72.8766457, "tags": {"addr:district": "Kheda", "addr:full": "Bhagol, Junaraopura, Nadiad", "addr:postcode": "387002", "addr:state": "Gujarat", "amenity": "hospital", "name": "Care General Hospital", "source": "Local Knowledge"}}, {"type": "node", "id": 7867105332, "lat": 22.6851709, "lon": 72.8709762, "tags": {"addr:district": "Kheda", "addr:full": "Shanti Nagar, Nadiad", "addr:postcode": "387001", "addr:state": "Gujarat", "amenity": "hospital", "name": "Utkarsh Hospital", "source": "Local Knowledge"}}, {"type": "node", "id": 7867105333, "lat": 22.692188, "lon": 72.866366, "tags": {"addr:district": "Kheda", "addr:full": "Junaraopura, Nadiad", "addr:postcode": "387001", "addr:state": "Gujarat", "amenity": "hospital", "name": "Urvish Hospital", "source": "Local Knowledge"}}, {"type": "node", "id": 7867105336, "lat": 22.6912655, "lon": 72.8628642, "tags": {"addr:district": "Kheda", "addr:full": "Junaraopura, Nadiad", "addr:postcode": "387001", "addr:state": "Gujarat", "amenity": "clinic", "name": "Sonex Clinic", "source": "Local Knowledge"}}, {"type": "node", "id": 7867105337, "lat": 22.6832417, "lon": 72.8722937, "tags": {"addr:district": "Kheda", "addr:full": "Nadiad", "addr:postcode": "387001", "addr:state": "Gujarat", "amenity": "hospital", "name": "Muljibhai Patel Urological Hospital", "source": "Local Knowledge"}}, {"type": "node", "id": 7867105340, "lat": 22.69209, "lon": 72.866039, "tags": {"addr:district": "Kheda", "addr:full": "Junaraopura, Nadiad", "addr:postcode": "387001", "addr:state": "Gujarat", "amenity": "hospital", "name": "Krutarth Hospital", "source": "Local Knowledge"}}, {"type": "node", "id": 7867105341, "lat": 22.6895525, "lon": 72.8623478, "tags": {"addr:district": "Kheda", "addr:full": "Shanti Nagar, Nadiad", "addr:postcode": "387001", "addr:state": "Gujarat", "amenity": "hospital", "name": "Navjot Hospital", "source": "Local Knowledge"}}, {"type": "node", "id": 7867105343, "lat": 22.692218, "lon": 72.866597, "tags": {"addr:district": "Kheda", "addr:full": "Nadiad", "addr:postcode": "387001", "addr:state": "Gujarat", "amenity": "hospital", "name": "Dr. HA Jobanputra's Sushrut Hospital", "source": "Local Knowledge"}}, {"type": "node", "id": 7867105345, "lat": 22.6912416, "lon": 72.8667176, "tags": {"addr:district": "Kheda", "addr:full": "Junaraopura, Nadiad", "addr:postcode": "387001", "addr:state": "Gujarat", "amenity": "hospital", "name": "Amee Multispeciality Hospital", "source": "Local Knowledge"}}, {"type": "node", "id": 7867105346, "lat": 22.6918657, "lon": 72.8650241, "tags": {"addr:district": "Kheda", "addr:full": "Junaraopura, Nadiad", "addr:postcode": "387001", "addr:state": "Gujarat", "amenity": "hospital", "name": "Pavan Hospital", "source": "Local Knowledge"}}, {"type": "node", "id": 7867105347, "lat": 22.690424, "lon": 72.858016, "tags": {"addr:district": "Kheda", "addr:full": "Nadiad", "addr:postcode": "387002", "addr:state": "Gujarat", "amenity": "hospital", "name": "Shlok Multispeciality Hospital", "source": "Local Knowledge"}}, {"type": "node", "id": 7867105349, "lat": 22.7054221, "lon": 72.8585585, "tags": {"addr:district": "Kheda", "addr:postcode": "387002", "addr:state": "Gujarat", "amenity": "hospital", "name": "Vishwas Hospital", "source": "Local Knowledge"}}, {"type": "node", "id": 7867105351, "lat": 22.689309, "lon": 72.8724367, "tags": {"addr:district": "Kheda", "addr:full": "Nutan Park Society, Nadiad", "addr:postcode": "387001", "addr:state": "Gujarat", "amenity": "hospital", "name": "Vikram Hospital", "source": "Local Knowledge"}}, {"type": "node", "id": 7867105354, "lat": 22.6903506, "lon": 72.8663, "tags": {"addr:district": "Kheda", "addr:full": "Shanti Nagar, Nadiad", "addr:postcode": "387001", "addr:state": "Gujarat", "amenity": "hospital", "name": "Shraddha Hospital", "source": "Local Knowledge"}}, {"type": "node", "id": 7867105355, "lat": 22.695004, "lon": 72.85931, "tags": {"addr:district": "Kheda", "addr:full": "Nadiad", "addr:postcode": "387001", "addr:state": "Gujarat", "amenity": "hospital", "name": "Shree Harikrishna Hospital", "source": "Local Knowledge"}}, {"type": "node", "id": 7867105356, "lat": 22.6912704, "lon": 72.8614357, "tags": {"addr:district": "Kheda", "addr:full": "Nadiad", "addr:postcode": "387001", "addr:state": "Gujarat", "amenity": "hospital", "name": "S R Shah Hospital", "source": "Local Knowledge"}}, {"type": "node", "id": 7867105357, "lat": 22.6893428, "lon": 72.8623282, "tags": {"addr:district": "Kheda", "addr:full": "Shanti Nagar, Nadiad", "addr:postcode": "387001", "addr:state": "Gujarat", "amenity": "hospital", "name": "Rudra Hospital", "source": "Local Knowledge"}}, {"type": "node", "id": 7867105359, "lat": 22.684118, "lon": 72.8735951, "tags": {"addr:district": "Kheda", "addr:full": "Nadiad", "addr:postcode": "387001", "addr:state": "Gujarat", "amenity": "clinic", "name": "Akshar Clinic", "source": "Local Knowledge"}}, {"type": "node", "id": 7867105363, "lat": 22.691583, "lon": 72.8627112, "tags": {"addr:district": "Kheda", "addr:full": "Junaraopura, Nadiad", "addr:postcode": "387001", "addr:state": "Gujarat", "amenity": "hospital", "healthcare": "hospital", "source": "Local Knowledge"}}, {"type": "node", "id": 7867105364, "lat": 22.6877377, "lon": 72.8687324, "tags": {"addr:district": "Kheda", "addr:full": "Shanti Nagar, Nadiad", "addr:postcode": "387001", "addr:state": "Gujarat", "amenity": "hospital", "name": "SushrutNiramay Hospital", "source": "Local Knowledge"}}, {"type": "node", "id": 7867105367, "lat": 22.687262, "lon": 72.868473, "tags": {"addr:district": "Kheda", "addr:postcode": "387001", "addr:state": "Gujarat", "amenity": "hospital", "name": "Mamta Hospital", "source": "Local Knowledge"}}, {"type": "node", "id": 7867105368, "lat": 22.70838, "lon": 72.857111, "tags": {"addr:district": "Kheda", "addr:full": "Jawahar Nagar, Subhash Nagar, Nadiad", "addr:postcode": "387002", "addr:state": "Gujarat", "amenity": "clinic", "name": "Brahmbhatt Clinic", "source": "Local Knowledge"}}, {"type": "node", "id": 7867105371, "lat": 22.688929, "lon": 72.87274, "tags": {"addr:district": "Kheda", "addr:full": "Shanti Nagar, Nadiad", "addr:postcode": "387001", "addr:state": "Gujarat", "amenity": "hospital", "name": "Parekh's Hospital", "source": "Local Knowledge"}}, {"type": "node", "id": 7867105373, "lat": 22.684585, "lon": 72.866458, "tags": {"addr:district": "Kheda", "addr:full": "Nadiad", "addr:postcode": "387001", "addr:state": "Gujarat", "amenity": "hospital", "name": "Dr. Hashmukh Shah's Hospital", "source": "Local Knowledge"}}]}